[
    {
        "Altitude(m)": 707248.1638618407,
        "Argument of Periapsis(deg)": 0.007973084830638947,
        "Eccentricity": 0.0,
        "Inclination(deg)": 45.0,
        "Latitude(deg)": -17.29589589058707,
        "Longitude(deg)": 126.42538636016543,
        "Mean Anomaly(deg)": -24.654048346763382,
        "RAAN(deg)": 244.99247364097928,
        "Satellite Name": "Constellation 1 1098",
        "Satellite Number": 1098,
        "Semi-Major Axis(m)": 7083131.272910544,
        "Time(s)": 133
    },
    {
        "Altitude(m)": 707235.6890170539,
        "Argument of Periapsis(deg)": 0.008033032836884352,
        "Eccentricity": 0.0,
        "Inclination(deg)": 45.0,
        "Latitude(deg)": -17.254870581815116,
        "Longitude(deg)": 126.46821146710538,
        "Mean Anomaly(deg)": -24.593347206513542,
        "RAAN(deg)": 244.99241705181373,
        "Satellite Name": "Constellation 1 1098",
        "Satellite Number": 1098,
        "Semi-Major Axis(m)": 7083131.272910544,
        "Time(s)": 134
    },
    {
        "Altitude(m)": 707223.2250834137,
        "Argument of Periapsis(deg)": 0.008092980843129758,
        "Eccentricity": 0.0,
        "Inclination(deg)": 45.0,
        "Latitude(deg)": -17.213834061334932,
        "Longitude(deg)": 126.51101594925568,
        "Mean Anomaly(deg)": -24.53264606626368,
        "RAAN(deg)": 244.99236046264818,
        "Satellite Name": "Constellation 1 1098",
        "Satellite Number": 1098,
        "Semi-Major Axis(m)": 7083131.272910544,
        "Time(s)": 135
    },
    {
        "Altitude(m)": 707210.7720999692,
        "Argument of Periapsis(deg)": 0.008152928849375162,
        "Eccentricity": 0.0,
        "Inclination(deg)": 45.0,
        "Latitude(deg)": -17.172786361795026,
        "Longitude(deg)": 126.55379986243798,
        "Mean Anomaly(deg)": -24.47194492601369,
        "RAAN(deg)": 244.99230387348254,
        "Satellite Name": "Constellation 1 1098",
        "Satellite Number": 1098,
        "Semi-Major Axis(m)": 7083131.272910544,
        "Time(s)": 136
    },
    {
        "Altitude(m)": 707198.3301057069,
        "Argument of Periapsis(deg)": 0.008212876855620568,
        "Eccentricity": 0.0,
        "Inclination(deg)": 45.0,
        "Latitude(deg)": -17.131727515804297,
        "Longitude(deg)": 126.59656326244337,
        "Mean Anomaly(deg)": -24.41124378576383,
        "RAAN(deg)": 244.992247284317,
        "Satellite Name": "Constellation 1 1098",
        "Satellite Number": 1098,
        "Semi-Major Axis(m)": 7083131.272910544,
        "Time(s)": 137
    },
    {
        "Altitude(m)": 707185.8991395677,
        "Argument of Periapsis(deg)": 0.008272824861865974,
        "Eccentricity": 0.0,
        "Inclination(deg)": 45.0,
        "Latitude(deg)": -17.09065755593149,
        "Longitude(deg)": 126.6393062050329,
        "Mean Anomaly(deg)": -24.350542645513972,
        "RAAN(deg)": 244.99219069515144,
        "Satellite Name": "Constellation 1 1098",
        "Satellite Number": 1098,
        "Semi-Major Axis(m)": 7083131.272910544,
        "Time(s)": 138
    },
    {
        "Altitude(m)": 707173.4792404261,
        "Argument of Periapsis(deg)": 0.00833277286811138,
        "Eccentricity": 0.0,
        "Inclination(deg)": 45.0,
        "Latitude(deg)": -17.049576514705628,
        "Longitude(deg)": 126.68202874593757,
        "Mean Anomaly(deg)": -24.289841505264036,
        "RAAN(deg)": 244.99213410598588,
        "Satellite Name": "Constellation 1 1098",
        "Satellite Number": 1098,
        "Semi-Major Axis(m)": 7083131.272910544,
        "Time(s)": 139
    },
    {
        "Altitude(m)": 707161.0704470968,
        "Argument of Periapsis(deg)": 0.008392720874356788,
        "Eccentricity": 0.0,
        "Inclination(deg)": 45.0,
        "Latitude(deg)": -17.00848442461631,
        "Longitude(deg)": 126.72473094085805,
        "Mean Anomaly(deg)": -24.22914036501407,
        "RAAN(deg)": 244.99207751682033,
        "Satellite Name": "Constellation 1 1098",
        "Satellite Number": 1098,
        "Semi-Major Axis(m)": 7083131.272910544,
        "Time(s)": 140
    },
    {
        "Altitude(m)": 707148.6727983513,
        "Argument of Periapsis(deg)": 0.008452668880602192,
        "Eccentricity": 0.0,
        "Inclination(deg)": 45.0,
        "Latitude(deg)": -16.96738131811344,
        "Longitude(deg)": 126.76741267736777,
        "Mean Anomaly(deg)": -24.168439224764235,
        "RAAN(deg)": 244.99202092765478,
        "Satellite Name": "Constellation 1 1098",
        "Satellite Number": 1098,
        "Semi-Major Axis(m)": 7083131.272910544,
        "Time(s)": 141
    },
    {
        "Altitude(m)": 707136.2863328824,
        "Argument of Periapsis(deg)": 0.008512616886847598,
        "Eccentricity": 0.0,
        "Inclination(deg)": 45.0,
        "Latitude(deg)": -16.92626722760786,
        "Longitude(deg)": 126.81007434730103,
        "Mean Anomaly(deg)": -24.107738084514324,
        "RAAN(deg)": 244.99196433848914,
        "Satellite Name": "Constellation 1 1098",
        "Satellite Number": 1098,
        "Semi-Major Axis(m)": 7083131.272910544,
        "Time(s)": 142
    },
    {
        "Altitude(m)": 707123.9110893424,
        "Argument of Periapsis(deg)": 0.008572564893093004,
        "Eccentricity": 0.0,
        "Inclination(deg)": 45.0,
        "Latitude(deg)": -16.8851421854708,
        "Longitude(deg)": 126.85271583817088,
        "Mean Anomaly(deg)": -24.04703694426449,
        "RAAN(deg)": 244.9919077493236,
        "Satellite Name": "Constellation 1 1098",
        "Satellite Number": 1098,
        "Semi-Major Axis(m)": 7083131.272910544,
        "Time(s)": 143
    },
    {
        "Altitude(m)": 707111.5471063214,
        "Argument of Periapsis(deg)": 0.008632512899338408,
        "Eccentricity": 0.0,
        "Inclination(deg)": 45.0,
        "Latitude(deg)": -16.844006224034374,
        "Longitude(deg)": 126.89533720555734,
        "Mean Anomaly(deg)": -23.986335804014523,
        "RAAN(deg)": 244.99185116015803,
        "Satellite Name": "Constellation 1 1098",
        "Satellite Number": 1098,
        "Semi-Major Axis(m)": 7083131.272910544,
        "Time(s)": 144
    },
    {
        "Altitude(m)": 707099.1944223391,
        "Argument of Periapsis(deg)": 0.008692460905583814,
        "Eccentricity": 0.0,
        "Inclination(deg)": 45.0,
        "Latitude(deg)": -16.80285937559183,
        "Longitude(deg)": 126.93793850500992,
        "Mean Anomaly(deg)": -23.92563466376469,
        "RAAN(deg)": 244.99179457099248,
        "Satellite Name": "Constellation 1 1098",
        "Satellite Number": 1098,
        "Semi-Major Axis(m)": 7083131.272910544,
        "Time(s)": 145
    },
    {
        "Altitude(m)": 707086.853075875,
        "Argument of Periapsis(deg)": 0.00875240891182922,
        "Eccentricity": 0.0,
        "Inclination(deg)": 45.0,
        "Latitude(deg)": -16.761701672397237,
        "Longitude(deg)": 126.98051979204814,
        "Mean Anomaly(deg)": -23.86493352351473,
        "RAAN(deg)": 244.99173798182693,
        "Satellite Name": "Constellation 1 1098",
        "Satellite Number": 1098,
        "Semi-Major Axis(m)": 7083131.272910544,
        "Time(s)": 146
    },
    {
        "Altitude(m)": 707074.5231053338,
        "Argument of Periapsis(deg)": 0.008812356918074627,
        "Eccentricity": 0.0,
        "Inclination(deg)": 45.0,
        "Latitude(deg)": -16.72053314666612,
        "Longitude(deg)": 127.02308112216099,
        "Mean Anomaly(deg)": -23.804232383264914,
        "RAAN(deg)": 244.9916813926613,
        "Satellite Name": "Constellation 1 1098",
        "Satellite Number": 1098,
        "Semi-Major Axis(m)": 7083131.272910544,
        "Time(s)": 147
    },
    {
        "Altitude(m)": 707062.2045490771,
        "Argument of Periapsis(deg)": 0.008872304924320031,
        "Eccentricity": 0.0,
        "Inclination(deg)": 45.0,
        "Latitude(deg)": -16.67935383057482,
        "Longitude(deg)": 127.06562238271081,
        "Mean Anomaly(deg)": -23.743531243014978,
        "RAAN(deg)": 244.99162480349574,
        "Satellite Name": "Constellation 1 1098",
        "Satellite Number": 1098,
        "Semi-Major Axis(m)": 7083131.272910544,
        "Time(s)": 148
    },
    {
        "Altitude(m)": 707049.8974453948,
        "Argument of Periapsis(deg)": 0.008932252930565437,
        "Eccentricity": 0.0,
        "Inclination(deg)": 45.0,
        "Latitude(deg)": -16.63816375626178,
        "Longitude(deg)": 127.1081439653201,
        "Mean Anomaly(deg)": -23.682830102765017,
        "RAAN(deg)": 244.9915682143302,
        "Satellite Name": "Constellation 1 1098",
        "Satellite Number": 1098,
        "Semi-Major Axis(m)": 7083131.272910544,
        "Time(s)": 149
    },
    {
        "Altitude(m)": 707037.6018325208,
        "Argument of Periapsis(deg)": 0.008992200936810843,
        "Eccentricity": 0.0,
        "Inclination(deg)": 45.0,
        "Latitude(deg)": -16.596962955826488,
        "Longitude(deg)": 127.15064575729036,
        "Mean Anomaly(deg)": -23.622128962515184,
        "RAAN(deg)": 244.99151162516463,
        "Satellite Name": "Constellation 1 1098",
        "Satellite Number": 1098,
        "Semi-Major Axis(m)": 7083131.272910544,
        "Time(s)": 150
    },
    {
        "Altitude(m)": 707025.3177486319,
        "Argument of Periapsis(deg)": 0.009052148943056249,
        "Eccentricity": 0.0,
        "Inclination(deg)": 45.0,
        "Latitude(deg)": -16.555751461330086,
        "Longitude(deg)": 127.19312781398995,
        "Mean Anomaly(deg)": -23.56142782226532,
        "RAAN(deg)": 244.99145503599908,
        "Satellite Name": "Constellation 1 1098",
        "Satellite Number": 1098,
        "Semi-Major Axis(m)": 7083131.272910544,
        "Time(s)": 151
    }
]